start=new Date('2022-04-09T00:00:00.000Z').valueOf();
sats=[{"TLE_LINE1":"1 46679U 20073K   22098.87722181  .00004435  00000-0  31633-3 0  9996","MEAN_ANOMALY":"306.1362","GP_ID":"200780562","DECAY_DATE":null,"LAUNCH_DATE":"2020-10-18","TLE_LINE2":"2 46679  53.0556 164.7925 0001831  53.9796 306.1362 15.06413142 81753","REV_AT_EPOCH":"8175","CLASSIFICATION_TYPE":"U","ELEMENT_SET_NO":"999","EPHEMERIS_TYPE":"0","REF_FRAME":"TEME","OBJECT_NAME":"STARLINK-1773","EPOCH":"2022-04-08T21:03:11.964384","ECCENTRICITY":"0.00018310","COUNTRY_CODE":"US","FILE":"3393990","ARG_OF_PERICENTER":"53.9796","CENTER_NAME":"EARTH","MEAN_ELEMENT_THEORY":"SGP4","PERIOD":"95.591","OBJECT_ID":"2020-073K","PERIAPSIS":"545.905","MEAN_MOTION":"15.06413142","RA_OF_ASC_NODE":"164.7925","TIME_SYSTEM":"UTC","NORAD_CAT_ID":"46679","MEAN_MOTION_DOT":"0.00004435","INCLINATION":"53.0556","BSTAR":"0.00031633000000","APOAPSIS":"548.441","MEAN_MOTION_DDOT":"0.0000000000000","SITE":"AFETR","OBJECT_TYPE":"PAYLOAD","SEMIMAJOR_AXIS":"6925.308","RCS_SIZE":"LARGE"},{"REV_AT_EPOCH":"8124","TLE_LINE2":"2 46680  53.0548 200.3721 0001644  56.7360 303.3786 15.06414586 81243","CLASSIFICATION_TYPE":"U","DECAY_DATE":null,"GP_ID":"200781813","LAUNCH_DATE":"2020-10-18","MEAN_ANOMALY":"303.3786","TLE_LINE1":"1 46680U 20073L   22098.74683039  .00012055  00000-0  82651-3 0  9995","ARG_OF_PERICENTER":"56.7360","CENTER_NAME":"EARTH","PERIOD":"95.591","MEAN_ELEMENT_THEORY":"SGP4","ECCENTRICITY":"0.00016440","EPOCH":"2022-04-08T17:55:26.145696","FILE":"3393990","COUNTRY_CODE":"US","REF_FRAME":"TEME","OBJECT_NAME":"STARLINK-1774","ELEMENT_SET_NO":"999","EPHEMERIS_TYPE":"0","NORAD_CAT_ID":"46680","INCLINATION":"53.0548","MEAN_MOTION_DOT":"0.00012055","RA_OF_ASC_NODE":"200.3721","MEAN_MOTION":"15.06414586","TIME_SYSTEM":"UTC","PERIAPSIS":"546.030","OBJECT_ID":"2020-073L","SEMIMAJOR_AXIS":"6925.304","OBJECT_TYPE":"PAYLOAD","RCS_SIZE":"LARGE","SITE":"AFETR","BSTAR":"0.00082651000000","MEAN_MOTION_DDOT":"0.0000000000000","APOAPSIS":"548.307"},{"SITE":"AFETR","BSTAR":"0.00010394000000","APOAPSIS":"548.492","MEAN_MOTION_DDOT":"0.0000000000000","SEMIMAJOR_AXIS":"6925.333","OBJECT_TYPE":"PAYLOAD","RCS_SIZE":"LARGE","PERIAPSIS":"545.905","OBJECT_ID":"2020-073M","NORAD_CAT_ID":"46681","INCLINATION":"53.0530","MEAN_MOTION_DOT":"0.00001267","MEAN_MOTION":"15.06404922","RA_OF_ASC_NODE":"200.2054","TIME_SYSTEM":"UTC","REF_FRAME":"TEME","OBJECT_NAME":"STARLINK-1775","ELEMENT_SET_NO":"999","EPHEMERIS_TYPE":"0","ARG_OF_PERICENTER":"50.5174","CENTER_NAME":"EARTH","PERIOD":"95.592","MEAN_ELEMENT_THEORY":"SGP4","ECCENTRICITY":"0.00018680","EPOCH":"2022-04-08T18:48:30.439296","FILE":"3393814","COUNTRY_CODE":"US","MEAN_ANOMALY":"309.5980","TLE_LINE1":"1 46681U 20073M   22098.78368564  .00001267  00000-0  10394-3 0  9991","REV_AT_EPOCH":"8172","TLE_LINE2":"2 46681  53.0530 200.2054 0001868  50.5174 309.5980 15.06404922 81726","CLASSIFICATION_TYPE":"U","DECAY_DATE":null,"GP_ID":"200755465","LAUNCH_DATE":"2020-10-18"},{"EPHEMERIS_TYPE":"0","ELEMENT_SET_NO":"999","OBJECT_NAME":"STARLINK-1776","REF_FRAME":"TEME","FILE":"3393990","COUNTRY_CODE":"US","ECCENTRICITY":"0.00018990","EPOCH":"2022-04-08T14:39:03.311136","PERIOD":"95.591","MEAN_ELEMENT_THEORY":"SGP4","ARG_OF_PERICENTER":"49.2768","CENTER_NAME":"EARTH","TLE_LINE1":"1 46682U 20073N   22098.61045499  .00005164  00000-0  36521-3 0  9993","MEAN_ANOMALY":"310.8386","LAUNCH_DATE":"2020-10-18","DECAY_DATE":null,"GP_ID":"200780312","CLASSIFICATION_TYPE":"U","TLE_LINE2":"2 46682  53.0539 200.9696 0001899  49.2768 310.8386 15.06413138 81222","REV_AT_EPOCH":"8122","MEAN_MOTION_DDOT":"0.0000000000000","APOAPSIS":"548.488","BSTAR":"0.00036521000000","SITE":"AFETR","RCS_SIZE":"LARGE","SEMIMAJOR_AXIS":"6925.308","OBJECT_TYPE":"PAYLOAD","OBJECT_ID":"2020-073N","PERIAPSIS":"545.858","TIME_SYSTEM":"UTC","MEAN_MOTION":"15.06413138","RA_OF_ASC_NODE":"200.9696","INCLINATION":"53.0539","MEAN_MOTION_DOT":"0.00005164","NORAD_CAT_ID":"46682"},{"TIME_SYSTEM":"UTC","MEAN_MOTION":"15.06425538","RA_OF_ASC_NODE":"185.4276","MEAN_MOTION_DOT":"0.00007830","INCLINATION":"53.0543","NORAD_CAT_ID":"46684","OBJECT_ID":"2020-073Q","PERIAPSIS":"545.833","RCS_SIZE":"LARGE","OBJECT_TYPE":"PAYLOAD","SEMIMAJOR_AXIS":"6925.270","APOAPSIS":"548.438","MEAN_MOTION_DDOT":"0.0000000000000","BSTAR":"0.00054357000000","SITE":"AFETR","LAUNCH_DATE":"2020-10-18","DECAY_DATE":null,"GP_ID":"200781062","CLASSIFICATION_TYPE":"U","REV_AT_EPOCH":"8145","TLE_LINE2":"2 46684  53.0543 185.4276 0001881  45.8189 314.2954 15.06425538 81451","TLE_LINE1":"1 46684U 20073Q   22098.73162335  .00007830  00000-0  54357-3 0  9996","MEAN_ANOMALY":"314.2954","COUNTRY_CODE":"US","FILE":"3393990","EPOCH":"2022-04-08T17:33:32.257440","ECCENTRICITY":"0.00018810","MEAN_ELEMENT_THEORY":"SGP4","PERIOD":"95.591","CENTER_NAME":"EARTH","ARG_OF_PERICENTER":"45.8189","EPHEMERIS_TYPE":"0","ELEMENT_SET_NO":"999","OBJECT_NAME":"STARLINK-1780","REF_FRAME":"TEME"},{"CLASSIFICATION_TYPE":"U","TLE_LINE2":"2 46685  53.0534 200.1990 0001750  46.5169 313.5966 15.06421727 81722","REV_AT_EPOCH":"8172","LAUNCH_DATE":"2020-10-18","GP_ID":"200755083","DECAY_DATE":null,"MEAN_ANOMALY":"313.5966","TLE_LINE1":"1 46685U 20073R   22098.78737667  .00006779  00000-0  47331-3 0  9993","PERIOD":"95.591","MEAN_ELEMENT_THEORY":"SGP4","ARG_OF_PERICENTER":"46.5169","CENTER_NAME":"EARTH","FILE":"3393791","COUNTRY_CODE":"US","ECCENTRICITY":"0.00017500","EPOCH":"2022-04-08T18:53:49.344288","OBJECT_NAME":"STARLINK-1781","REF_FRAME":"TEME","EPHEMERIS_TYPE":"0","ELEMENT_SET_NO":"999","INCLINATION":"53.0534","MEAN_MOTION_DOT":"0.00006779","NORAD_CAT_ID":"46685","TIME_SYSTEM":"UTC","MEAN_MOTION":"15.06421727","RA_OF_ASC_NODE":"200.1990","PERIAPSIS":"545.935","OBJECT_ID":"2020-073R","RCS_SIZE":"LARGE","SEMIMAJOR_AXIS":"6925.282","OBJECT_TYPE":"PAYLOAD","SITE":"AFETR","APOAPSIS":"548.359","MEAN_MOTION_DDOT":"0.0000000000000","BSTAR":"0.00047331000000"},{"ECCENTRICITY":"0.00016770","EPOCH":"2022-04-08T13:40:39.821376","COUNTRY_CODE":"US","FILE":"3393377","ARG_OF_PERICENTER":"56.3945","CENTER_NAME":"EARTH","PERIOD":"95.591","MEAN_ELEMENT_THEORY":"SGP4","ELEMENT_SET_NO":"999","EPHEMERIS_TYPE":"0","REF_FRAME":"TEME","OBJECT_NAME":"STARLINK-1783","DECAY_DATE":null,"GP_ID":"200723524","LAUNCH_DATE":"2020-10-18","REV_AT_EPOCH":"8169","TLE_LINE2":"2 46686  53.0533 201.1661 0001677  56.3945 303.7204 15.06411002 81694","CLASSIFICATION_TYPE":"U","TLE_LINE1":"1 46686U 20073S   22098.56990534  .00004234  00000-0  30288-3 0  9991","MEAN_ANOMALY":"303.7204","SEMIMAJOR_AXIS":"6925.315","OBJECT_TYPE":"PAYLOAD","RCS_SIZE":"LARGE","BSTAR":"0.00030288000000","APOAPSIS":"548.341","MEAN_MOTION_DDOT":"0.0000000000000","SITE":"AFETR","RA_OF_ASC_NODE":"201.1661","MEAN_MOTION":"15.06411002","TIME_SYSTEM":"UTC","NORAD_CAT_ID":"46686","INCLINATION":"53.0533","MEAN_MOTION_DOT":"0.00004234","OBJECT_ID":"2020-073S","PERIAPSIS":"546.018"},{"OBJECT_NAME":"STARLINK-1784","REF_FRAME":"TEME","EPHEMERIS_TYPE":"0","ELEMENT_SET_NO":"999","MEAN_ELEMENT_THEORY":"SGP4","PERIOD":"95.592","CENTER_NAME":"EARTH","ARG_OF_PERICENTER":"41.0818","COUNTRY_CODE":"US","FILE":"3393990","EPOCH":"2022-04-08T21:19:07.765248","ECCENTRICITY":"0.00018940","MEAN_ANOMALY":"319.0313","TLE_LINE1":"1 46687U 20073T   22098.88828432  .00006516  00000-0  45586-3 0  9996","CLASSIFICATION_TYPE":"U","TLE_LINE2":"2 46687  53.0531 164.7328 0001894  41.0818 319.0313 15.06408546 81755","REV_AT_EPOCH":"8175","LAUNCH_DATE":"2020-10-18","DECAY_DATE":null,"GP_ID":"200780812","SITE":"AFETR","APOAPSIS":"548.499","MEAN_MOTION_DDOT":"0.0000000000000","BSTAR":"0.00045586000000","RCS_SIZE":"LARGE","OBJECT_TYPE":"PAYLOAD","SEMIMAJOR_AXIS":"6925.322","PERIAPSIS":"545.876","OBJECT_ID":"2020-073T","MEAN_MOTION_DOT":"0.00006516","INCLINATION":"53.0531","NORAD_CAT_ID":"46687","TIME_SYSTEM":"UTC","RA_OF_ASC_NODE":"164.7328","MEAN_MOTION":"15.06408546"},{"CLASSIFICATION_TYPE":"U","REV_AT_EPOCH":"8249","TLE_LINE2":"2 46689  53.0526 200.2307 0001808  51.1183 308.9967 15.06411260 82497","LAUNCH_DATE":"2020-10-18","GP_ID":"200780563","DECAY_DATE":null,"MEAN_ANOMALY":"308.9967","TLE_LINE1":"1 46689U 20073V   22098.78000442  .00005277  00000-0  37276-3 0  9990","MEAN_ELEMENT_THEORY":"SGP4","PERIOD":"95.591","CENTER_NAME":"EARTH","ARG_OF_PERICENTER":"51.1183","FILE":"3393990","COUNTRY_CODE":"US","EPOCH":"2022-04-08T18:43:12.381888","ECCENTRICITY":"0.00018080","OBJECT_NAME":"STARLINK-1788","REF_FRAME":"TEME","EPHEMERIS_TYPE":"0","ELEMENT_SET_NO":"999","MEAN_MOTION_DOT":"0.00005277","INCLINATION":"53.0526","NORAD_CAT_ID":"46689","TIME_SYSTEM":"UTC","MEAN_MOTION":"15.06411260","RA_OF_ASC_NODE":"200.2307","PERIAPSIS":"545.927","OBJECT_ID":"2020-073V","RCS_SIZE":"LARGE","OBJECT_TYPE":"PAYLOAD","SEMIMAJOR_AXIS":"6925.314","SITE":"AFETR","MEAN_MOTION_DDOT":"0.0000000000000","APOAPSIS":"548.431","BSTAR":"0.00037276000000"},{"PERIAPSIS":"546.181","OBJECT_ID":"2020-073W","INCLINATION":"53.0538","MEAN_MOTION_DOT":"0.00001646","NORAD_CAT_ID":"46690","TIME_SYSTEM":"UTC","RA_OF_ASC_NODE":"175.8080","MEAN_MOTION":"15.06401740","SITE":"AFETR","MEAN_MOTION_DDOT":"0.0000000000000","APOAPSIS":"548.235","BSTAR":"0.00012936000000","RCS_SIZE":"LARGE","SEMIMAJOR_AXIS":"6925.343","OBJECT_TYPE":"PAYLOAD","MEAN_ANOMALY":"289.4728","TLE_LINE1":"1 46690U 20073W   22098.64777293  .00001646  00000-0  12936-3 0  9994","CLASSIFICATION_TYPE":"U","REV_AT_EPOCH":"8157","TLE_LINE2":"2 46690  53.0538 175.8080 0001483  70.6421 289.4728 15.06401740 81575","LAUNCH_DATE":"2020-10-18","GP_ID":"200781814","DECAY_DATE":null,"OBJECT_NAME":"STARLINK-1789","REF_FRAME":"TEME","EPHEMERIS_TYPE":"0","ELEMENT_SET_NO":"999","PERIOD":"95.592","MEAN_ELEMENT_THEORY":"SGP4","CENTER_NAME":"EARTH","ARG_OF_PERICENTER":"70.6421","FILE":"3393990","COUNTRY_CODE":"US","ECCENTRICITY":"0.00014830","EPOCH":"2022-04-08T15:32:47.581152"}];
